ORBCOMM FM05 [-]        
1 25117U 97084F   23270.34283102  .00002390  00000+0  77398-3 0  9991
2 25117  45.0149 135.7363 0002607 319.2628  40.8026 14.41425292349746
ORBCOMM FM06 [+]        
1 25118U 97084G   23270.40129156  .00002666  00000+0  85930-3 0  9994
2 25118  45.0143 135.6090 0001983 337.9828 193.1391 14.41362994350661
ORBCOMM FM07 [-]        
1 25119U 97084H   23270.34937090  .00002477  00000+0  80236-3 0  9996
2 25119  45.0137 136.2888 0003000 302.9460  57.1101 14.41309332350657
ORBCOMM FM03 [-]        
1 25158U 98007B   23270.28129557  .00001906  00000+0  75846-3 0  9996
2 25158 107.9821 286.8523 0049801 266.0405  93.5039 14.31284034333963
ORBCOMM FM04 [+]        
1 25159U 98007C   23270.52076897  .00001606  00000+0  64491-3 0  9993
2 25159 107.9812 290.1279 0045300 263.7130  95.8848 14.31558616334165
ORBCOMM FM17 [-]        
1 25413U 98046A   23270.49808911  .00001522  00000+0  60974-3 0  9994
2 25413  44.9963 337.7480 0003387 273.2465  86.7994 14.32342389312956
ORBCOMM FM18 [-]        
1 25414U 98046B   23270.41889446  .00002413  00000+0  89145-3 0  9990
2 25414  44.9930 269.7760 0005150 334.1018  25.9571 14.34824954314006
ORBCOMM FM19 [+]        
1 25415U 98046C   23270.39077784  .00002299  00000+0  85370-3 0  9990
2 25415  44.9939 271.0408 0004394 320.7005 192.7000 14.34702916313795
